{"type": "FeatureCollection", "features": [{"type": "Feature", "properties": {"norad_id": 22490, "name": "SCD 1", "group": "resource", "lat": -22.167642467279688, "lon": -147.5121900889929, "alt_km": 715.3966721829856, "timestamp": "2025-12-13T13:34:34.731124+00:00", "meta": {"OBJECT_NAME": "SCD 1", "OBJECT_ID": "1993-009B", "EPOCH": "2025-12-12T05:23:25.712160", "MEAN_MOTION": 14.4599861, "ECCENTRICITY": 0.00417838, "INCLINATION": 24.97, "RA_OF_ASC_NODE": 281.8676, "ARG_OF_PERICENTER": 319.5532, "MEAN_ANOMALY": 182.0481, "EPHEMERIS_TYPE": 0, "CLASSIFICATION_TYPE": "U", "NORAD_CAT_ID": 22490, "ELEMENT_SET_NO": 999, "REV_AT_EPOCH": 73402, "BSTAR": 0.00015231045, "MEAN_MOTION_DOT": 7.43e-06, "MEAN_MOTION_DDOT": 0}, "tle": {"line1": "1 22490U 93009B   25346.22460315  .00000743  00000+0  15231-3 0  9999", "line2": "2 22490  24.9700 281.8676 0041783 319.5532 182.0481 14.45998610734027"}}, "geometry": {"type": "Point", "coordinates": [-147.5121900889929, -22.167642467279688]}}, {"type": "Feature", "properties": {"norad_id": 25397, "name": "TECHSAT 1B (GO-32)", "group": "resource", "lat": 77.93934688038219, "lon": -77.02721773419987, "alt_km": 801.943841392268, "timestamp": "2025-12-13T13:34:34.731157+00:00", "meta": {"OBJECT_NAME": "TECHSAT 1B (GO-32)", "OBJECT_ID": "1998-043D", "EPOCH": "2025-12-12T22:01:12.711072", "MEAN_MOTION": 14.24377113, "ECCENTRICITY": 0.00020463, "INCLINATION": 98.992, "RA_OF_ASC_NODE": 330.1336, "ARG_OF_PERICENTER": 56.9971, "MEAN_ANOMALY": 303.1404, "EPHEMERIS_TYPE": 0, "CLASSIFICATION_TYPE": "U", "NORAD_CAT_ID": 25397, "ELEMENT_SET_NO": 999, "REV_AT_EPOCH": 42481, "BSTAR": 9.1119791e-05, "MEAN_MOTION_DOT": 1.64e-06, "MEAN_MOTION_DDOT": 0}, "tle": {"line1": "1 25397U 98043D   25346.91750823  .00000164  00000+0  91120-4 0  9992", "line2": "2 25397  98.9920 330.1336 0002046  56.9971 303.1404 14.24377113424810"}}, "geometry": {"type": "Point", "coordinates": [-77.02721773419987, 77.93934688038219]}}, {"type": "Feature", "properties": {"norad_id": 25504, "name": "SCD 2", "group": "resource", "lat": -13.219406182259993, "lon": 106.52498549697154, "alt_km": 728.3904274699762, "timestamp": "2025-12-13T13:34:34.731170+00:00", "meta": {"OBJECT_NAME": "SCD 2", "OBJECT_ID": "1998-060A", "EPOCH": "2025-12-12T17:56:46.046688", "MEAN_MOTION": 14.45423471, "ECCENTRICITY": 0.00166549, "INCLINATION": 24.9933, "RA_OF_ASC_NODE": 141.8465, "ARG_OF_PERICENTER": 313.7297, "MEAN_ANOMALY": 68.7779, "EPHEMERIS_TYPE": 0, "CLASSIFICATION_TYPE": "U", "NORAD_CAT_ID": 25504, "ELEMENT_SET_NO": 999, "REV_AT_EPOCH": 43332, "BSTAR": 0.00011955231, "MEAN_MOTION_DOT": 6.1e-06, "MEAN_MOTION_DDOT": 0}, "tle": {"line1": "1 25504U 98060A   25346.74775517  .00000610  00000+0  11955-3 0  9992", "line2": "2 25504  24.9933 141.8465 0016654 313.7297  68.7779 14.45423471433325"}}, "geometry": {"type": "Point", "coordinates": [106.52498549697154, -13.219406182259993]}}, {"type": "Feature", "properties": {"norad_id": 25757, "name": "DLR-TUBSAT", "group": "resource", "lat": 22.890826791058412, "lon": -31.583140405100245, "alt_km": 727.1580388698094, "timestamp": "2025-12-13T13:34:34.731181+00:00", "meta": {"OBJECT_NAME": "DLR-TUBSAT", "OBJECT_ID": "1999-029B", "EPOCH": "2025-12-12T22:35:19.039776", "MEAN_MOTION": 14.52357809, "ECCENTRICITY": 0.00139098, "INCLINATION": 98.6563, "RA_OF_ASC_NODE": 331.4611, "ARG_OF_PERICENTER": 192.2046, "MEAN_ANOMALY": 167.8814, "EPHEMERIS_TYPE": 0, "CLASSIFICATION_TYPE": "U", "NORAD_CAT_ID": 25757, "ELEMENT_SET_NO": 999, "REV_AT_EPOCH": 40621, "BSTAR": 7.1932736e-05, "MEAN_MOTION_DOT": 2.45e-06, "MEAN_MOTION_DDOT": 0}, "tle": {"line1": "1 25757U 99029B   25346.94119259  .00000245  00000+0  71933-4 0  9992", "line2": "2 25757  98.6563 331.4611 0013909 192.2046 167.8814 14.52357809406212"}}, "geometry": {"type": "Point", "coordinates": [-31.583140405100245, 22.890826791058412]}}, {"type": "Feature", "properties": {"norad_id": 25994, "name": "TERRA", "group": "resource", "lat": 66.77035543521582, "lon": -121.71649945744471, "alt_km": 681.3502424712024, "timestamp": "2025-12-13T13:34:34.731192+00:00", "meta": {"OBJECT_NAME": "TERRA", "OBJECT_ID": "1999-068A", "EPOCH": "2025-12-13T00:26:47.133312", "MEAN_MOTION": 14.60902488, "ECCENTRICITY": 0.00036045, "INCLINATION": 97.975, "RA_OF_ASC_NODE": 38.6929, "ARG_OF_PERICENTER": 93.9258, "MEAN_ANOMALY": 22.4022, "EPHEMERIS_TYPE": 0, "CLASSIFICATION_TYPE": "U", "NORAD_CAT_ID": 25994, "ELEMENT_SET_NO": 999, "REV_AT_EPOCH": 38242, "BSTAR": 0.00016956886, "MEAN_MOTION_DOT": 7.85e-06, "MEAN_MOTION_DDOT": 0}, "tle": {"line1": "1 25994U 99068A   25347.01860108  .00000785  00000+0  16957-3 0  9996", "line2": "2 25994  97.9750  38.6929 0003604  93.9258  22.4022 14.60902488382427"}}, "geometry": {"type": "Point", "coordinates": [-121.71649945744471, 66.77035543521582]}}, {"type": "Feature", "properties": {"norad_id": 27004, "name": "MAROC-TUBSAT", "group": "resource", "lat": -11.287771195993061, "lon": -25.95035503223311, "alt_km": 997.2164793226093, "timestamp": "2025-12-13T13:34:34.731202+00:00", "meta": {"OBJECT_NAME": "MAROC-TUBSAT", "OBJECT_ID": "2001-056D", "EPOCH": "2025-12-13T00:55:04.426752", "MEAN_MOTION": 13.70252903, "ECCENTRICITY": 0.00191002, "INCLINATION": 99.7912, "RA_OF_ASC_NODE": 155.4884, "ARG_OF_PERICENTER": 259.3476, "MEAN_ANOMALY": 211.7615, "EPHEMERIS_TYPE": 0, "CLASSIFICATION_TYPE": "U", "NORAD_CAT_ID": 27004, "ELEMENT_SET_NO": 999, "REV_AT_EPOCH": 20069, "BSTAR": 4.6620533e-05, "MEAN_MOTION_DOT": -6e-08, "MEAN_MOTION_DDOT": 0}, "tle": {"line1": "1 27004U 01056D   25347.03824568 -.00000006  00000+0  46621-4 0  9991", "line2": "2 27004  99.7912 155.4884 0019100 259.3476 211.7615 13.70252903200696"}}, "geometry": {"type": "Point", "coordinates": [-25.95035503223311, -11.287771195993061]}}, {"type": "Feature", "properties": {"norad_id": 27424, "name": "AQUA", "group": "resource", "lat": -10.39080306279056, "lon": -49.98854839738599, "alt_km": 692.0063126385894, "timestamp": "2025-12-13T13:34:34.731213+00:00", "meta": {"OBJECT_NAME": "AQUA", "OBJECT_ID": "2002-022A", "EPOCH": "2025-12-13T00:49:03.357696", "MEAN_MOTION": 14.61810917, "ECCENTRICITY": 0.0001135, "INCLINATION": 98.4037, "RA_OF_ASC_NODE": 307.9179, "ARG_OF_PERICENTER": 115.4509, "MEAN_ANOMALY": 318.2019, "EPHEMERIS_TYPE": 0, "CLASSIFICATION_TYPE": "U", "NORAD_CAT_ID": 27424, "ELEMENT_SET_NO": 999, "REV_AT_EPOCH": 25607, "BSTAR": 0.00038558975, "MEAN_MOTION_DOT": 1.876e-05, "MEAN_MOTION_DDOT": 0}, "tle": {"line1": "1 27424U 02022A   25347.03406664  .00001876  00000+0  38559-3 0  9999", "line2": "2 27424  98.4037 307.9179 0001135 115.4509 318.2019 14.61810917256075"}}, "geometry": {"type": "Point", "coordinates": [-49.98854839738599, -10.39080306279056]}}, {"type": "Feature", "properties": {"norad_id": 28051, "name": "IRS-P6 (RESOURCESAT-1)", "group": "resource", "lat": 42.21382875531486, "lon": -144.53274266894329, "alt_km": 733.2876283318046, "timestamp": "2025-12-13T13:34:34.731223+00:00", "meta": {"OBJECT_NAME": "IRS-P6 (RESOURCESAT-1)", "OBJECT_ID": "2003-046A", "EPOCH": "2025-12-13T01:29:53.384352", "MEAN_MOTION": 14.36075223, "ECCENTRICITY": 0.00641783, "INCLINATION": 98.2179, "RA_OF_ASC_NODE": 27.4541, "ARG_OF_PERICENTER": 179.7074, "MEAN_ANOMALY": 237.6749, "EPHEMERIS_TYPE": 0, "CLASSIFICATION_TYPE": "U", "NORAD_CAT_ID": 28051, "ELEMENT_SET_NO": 999, "REV_AT_EPOCH": 15381, "BSTAR": 0.00012796293, "MEAN_MOTION_DOT": 3.4e-06, "MEAN_MOTION_DDOT": 0}, "tle": {"line1": "1 28051U 03046A   25347.06242343  .00000340  00000+0  12796-3 0  9998", "line2": "2 28051  98.2179  27.4541 0064178 179.7074 237.6749 14.36075223153817"}}, "geometry": {"type": "Point", "coordinates": [-144.53274266894329, 42.21382875531486]}}, {"type": "Feature", "properties": {"norad_id": 28220, "name": "SHIYAN-1 (SY-1)", "group": "resource", "lat": -73.51684110230244, "lon": 77.1152204437808, "alt_km": 485.4990788607929, "timestamp": "2025-12-13T13:34:34.731233+00:00", "meta": {"OBJECT_NAME": "SHIYAN-1 (SY-1)", "OBJECT_ID": "2004-012A", "EPOCH": "2025-12-12T17:28:34.310496", "MEAN_MOTION": 15.28143959, "ECCENTRICITY": 0.00056576, "INCLINATION": 97.8936, "RA_OF_ASC_NODE": 48.2653, "ARG_OF_PERICENTER": 325.015, "MEAN_ANOMALY": 35.0716, "EPHEMERIS_TYPE": 0, "CLASSIFICATION_TYPE": "U", "NORAD_CAT_ID": 28220, "ELEMENT_SET_NO": 999, "REV_AT_EPOCH": 18256, "BSTAR": 0.00069832605, "MEAN_MOTION_DOT": 0.00019116, "MEAN_MOTION_DDOT": 0}, "tle": {"line1": "1 28220U 04012A   25346.72817489  .00019116  00000+0  69833-3 0  9996", "line2": "2 28220  97.8936  48.2653 0005657 325.0150  35.0716 15.28143959182566"}}, "geometry": {"type": "Point", "coordinates": [77.1152204437808, -73.51684110230244]}}, {"type": "Feature", "properties": {"norad_id": 28376, "name": "AURA", "group": "resource", "lat": 60.494651571035575, "lon": 132.7793921302691, "alt_km": 683.4108011676799, "timestamp": "2025-12-13T13:34:34.731242+00:00", "meta": {"OBJECT_NAME": "AURA", "OBJECT_ID": "2004-026A", "EPOCH": "2025-12-12T23:53:11.844672", "MEAN_MOTION": 14.60948301, "ECCENTRICITY": 0.00012693, "INCLINATION": 98.3182, "RA_OF_ASC_NODE": 297.2231, "ARG_OF_PERICENTER": 94.9147, "MEAN_ANOMALY": 265.2198, "EPHEMERIS_TYPE": 0, "CLASSIFICATION_TYPE": "U", "NORAD_CAT_ID": 28376, "ELEMENT_SET_NO": 999, "REV_AT_EPOCH": 13902, "BSTAR": 0.00037977144, "MEAN_MOTION_DOT": 1.813e-05, "MEAN_MOTION_DDOT": 0}, "tle": {"line1": "1 28376U 04026A   25346.99527598  .00001813  00000+0  37977-3 0  9990", "line2": "2 28376  98.3182 297.2231 0001269  94.9147 265.2198 14.60948301139021"}}, "geometry": {"type": "Point", "coordinates": [132.7793921302691, 60.494651571035575]}}]}